SB KEPS @ AMSAT  $ORB11090.N
2Line Orbital Elements 11090.AMSAT

HR AMSAT ORBITAL ELEMENTS FOR AMATEUR SATELLITES IN NASA FORMAT
FROM WA5QGD FORT WORTH,TX March 31, 2011
Send Subscribe/unsubscribe to KEPS at http://www.amsat.org/mailman/listinfo/keps
BID: ORB11090.N

DECODE 2-LINE ELSETS WITH THE FOLLOWING KEY:
1 AAAAAU 00  0  0 BBBBB.BBBBBBBB  .CCCCCCCC  00000-0  00000-0 0  DDDZ
2 AAAAA EEE.EEEE FFF.FFFF GGGGGGG HHH.HHHH III.IIII JJ.JJJJJJJJKKKKKZ
KEY: A-CATALOGNUM B-EPOCHTIME C-DECAY D-ELSETNUM E-INCLINATION F-RAAN
G-ECCENTRICITY H-ARGPERIGEE I-MNANOM J-MNMOTION K-ORBITNUM Z-CHECKSUM

TO ALL RADIO AMATEURS BT

AO-07
1 07530U 74089B   11089.78661474 -.00000027  00000-0  10000-3 0 00417
2 07530 101.3947 099.4203 0012099 073.2067 287.0325 12.53581682664368
FO-29
1 24278U 96046B   11089.96383407  .00000035  00000-0  67941-4 0 05453
2 24278 098.5350 244.6778 0351405 099.9878 264.1104 13.52959490721882
SO-33
1 25509U 98061B   11089.81735985  .00000087  00000-0  31418-5 0 09357
2 25509 031.4369 327.5592 0354340 276.1724 079.8653 14.28375892649062
RS-22
1 27939U 03042A   11090.62631783  .00000384  00000-0  82553-4 0  1237
2 27939 097.8569 308.2927 0012622 228.3379 131.6753 14.63537073400991
VO-52
1 28650U 05017B   11089.84369595  .00001061  00000-0  13929-3 0  7557
2 28650 097.6507 136.4504 0028169 059.5472 300.8509 14.81963676319142
SO-67
1 35870U 09049F   11090.59020259  .00002209  00000-0  10114-3 0  6976
2 35870 097.2902 136.4917 0003490 142.4985 006.6038 15.21505057 85146
HO-68
1 36122U 09072B   11090.71063023 -.00000044  00000-0  00000 0 0  2435
2 36122 100.4231 152.6715 0007968 044.9174 315.2579 13.16284977 62045
UO-11
1 14781U 84021B   11090.79248775  .00000416  00000-0  62153-4 0  5095
2 14781 098.0144 147.7161 0009823 033.9634 326.2205 14.79918136454345
AO-16
1 20439U 90005D   11090.80831664  .00000113  00000-0  57765-4 0  1530
2 20439 098.3758 043.0446 0011741 036.2802 323.9176 14.31904779106548
LO-19
1 20442U 90005G   11089.92184228  .00000199  00000-0  89405-4 0 00643
2 20442 098.3383 046.8439 0012546 033.1291 327.0672 14.32131950106596
AO-27
1 22825U 93061C   11089.88793736  .00000201  00000-0  95871-4 0 07948
2 22825 098.5233 035.9838 0009023 141.2070 218.9754 14.29334581913005
IO-26
1 22826U 93061D   11089.97168613  .00000057  00000-0  38931-4 0 05243
2 22826 098.5189 036.5675 0009479 135.6890 224.5048 14.29594388913130
GO-32
1 25397U 98043D   11090.43707719  .00000085  00000-0  55496-4 0  4428
2 25397 098.3228 087.1711 0002046 118.6822 241.4561 14.23201279660900
NO-44
1 26931U 01043C   11089.75833557  .00000198  00000-0  10947-3 0 07160
2 26931 067.0515 185.6122 0007212 268.6560 091.3716 14.29644151495717
SO-50
1 27607U 02058C   11089.78580134  .00000360  00000-0  77772-4 0  4271
2 27607 064.5576 205.9010 0063948 339.0685 020.7813 14.71676659444553
CO-55
1 27844U 03031E   11089.58542434  .00000107  00000-0  69546-4 0   764
2 27844 098.7080 099.4265 0010693 066.8430 293.3866 14.20782871401754
CO-57
1 27848U 03031J   11089.51671092  .00000081  00000-0  57767-4 0 00251
2 27848 098.7139 098.5222 0010559 071.2001 289.0318 14.20565930401693
AO-51
1 28375U 04025K   11089.84192361  .00000141  00000-0  55337-4 0 09330
2 28375 098.0907 072.4365 0083806 308.5265 050.8427 14.40738171354780
CP3
1 31129U 07012N   11089.75326716  .00000448  00000-0  11279-3 0 08338
2 31129 097.9066 118.4778 0103402 065.0686 296.1180 14.52410365209450
CO-65
1 32785U 08021C   11089.75590865  .00001068  00000-0  14132-3 0 09528
2 32785 097.8557 155.1265 0016033 072.6561 287.6419 14.81885833157923
KKS-1
1 33493U 09002B   11090.49512070  .00001521  00000-0  20082-3 0  4452
2 33493 098.1136 218.0357 0018789 293.6984 066.2258 14.81442156118018
SOHLA-1
1 33496U 09002E   11089.88703910  .00000371  00000-0  70771-4 0 03824
2 33496 098.0717 200.5468 0007020 021.2699 338.8796 14.69576959116982
TISAT-1
1 36799U 10035E   11090.54865444  .00000926  00000-0  12823-3 0  7213
2 36799 098.1083 158.0130 0015697 163.5153 196.6577 14.80392425 38825
STUDSAT
1 36801U 10035G   11089.94735493  .00002398  00000-0  32216-3 0 01575
2 36801 098.1106 157.2515 0014538 154.8314 205.3612 14.80196068038720
RAX
1 37223U 0        11089.46431449  .00000660  00000-0  10054-3 0 01224
2 37223 071.9716 212.4675 0019443 068.5267 291.7923 14.77296529019265
OOREOS
1 37224U 10062C   11076.42207246  .00000868  00000-0  13086-3 0 01095
2 37224 071.9712 241.3960 0017800 096.5373 263.7815 14.76929834017329
FAST1
1 37227U 0        11090.48618085  .00000398  00000-0  64843-4 0 00127
2 37227 071.9703 210.5839 0015485 064.3066 295.9667 14.76533600001297
NANOSALD
1 37361U 0        11080.41235428  .00056672  00000-0  69550-2 0 00971
2 37361 071.9730 232.2252 0024394 042.6308 317.6744 14.82560370009032
FAST2
1 37380U 0        11090.48759118  .00000310  00000-0  52528-4 0 01278
2 37380 071.9735 210.5936 0016073 060.8422 299.4318 14.76302050019396
NOAA-10
1 16969U 86073A   11090.19475867  .00000031  00000-0  30491-4 0  4476
2 16969 098.6264 121.0166 0013150 092.9048 267.3637 14.27450115276523
NOAA-11
1 19531U 88089A   11090.27226277 -.00000013  00000-0  15663-4 0  4544
2 19531 098.7504 179.2108 0012014 053.1370 307.0883 14.14908626161737
NOAA-12
1 21263U 91032A   11090.60759744  .00000093  00000-0  57997-4 0  9489
2 21263 098.7565 108.5769 0013312 054.6057 305.6363 14.25694683 33357
MET-3/5
1 21655U 91056A   11089.81030567  .00000051  00000-0  10000-3 0   732
2 21655 082.5534 106.1552 0013505 359.2770 000.8293 13.17025365943400
MET-2/21
1 22782U 93055A   11090.37539017  .00000145  00000-0  11777-3 0   569
2 22782 082.5500 024.6081 0021533 320.8622 039.0996 13.83656853887794
OKEAN-4
1 23317U 94066A   11089.96612584  .00000912  00000-0  10896-3 0 05503
2 23317 082.5366 086.1740 0022994 021.1101 339.1069 14.82979885888956
NOAA-14
1 23455U 94089A   11090.47180299  .00000054  00000-0  51892-4 0  4331
2 23455 098.8542 173.8758 0009823 136.1160 224.0795 14.13811233838090
NOAA-15
1 25338U 98030A   11090.22124853  .00000135  00000-0  76680-4 0  7616
2 25338 098.6502 077.4553 0010088 323.9475 036.1066 14.24894641669628
RESURS
1 25394U 98043A   11089.98551496 -.00000007  00000-0  14498-4 0 07775
2 25394 098.3011 097.3169 0002309 088.4464 271.6982 14.24226708661172
FENGYUN1
1 25730U 99025A   11089.89423326  .00000493  00000-0  31167-3 0  2909
2 25730 098.8138 052.8271 0022692 168.3317 191.8383 14.08551697612043
OKEAN-0
1 25860U 99039A   11090.69439724  .00000319  00000-0  56320-4 0  2699
2 25860 097.8754 059.3110 0000651 073.2524 286.8756 14.73736141629249
NOAA-16
1 26536U 00055A   11090.23496504 -.00000152  00000-0 -56720-4 0  2432
2 26536 099.1480 119.1694 0009828 249.5525 110.4610 14.12603747542352
NOAA-17
1 27453U 02032A   11090.47796533  .00000108  00000-0  64888-4 0  2375
2 27453 098.3884 133.7248 0012029 021.8305 338.3384 14.24251326455594
NOAA-18
1 28654U 05018A   11090.40738435  .00000379  00000-0  23375-3 0  7196
2 28654 098.9881 041.3945 0013995 327.1036 032.9250 14.11454412301951
NOAA-19
1 33591U 09005A   11090.45833016  .00000426  00000-0  26051-3 0  9120
2 33591 098.8209 031.9420 0013847 193.1950 166.8848 14.11146750110428
HUBBLE
1 20580U 90037B   11089.34313701  .00001099  00000-0  70816-4 0  7370
2 20580 028.4694 171.4456 0003146 006.2292 353.8428 15.01235407947790
ISS
1 25544U 98067A   11090.89420299  .00039955  00000-0  29606-3 0  1050
2 25544 051.6463 197.5289 0002269 044.2550 057.5836 15.72489204708738
CO-58
1 28895U 05043F   11090.69489959  .00000503  00000-0  11390-3 0  8370
2 28895 097.9780 330.0326 0019165 104.5180 255.8195 14.60041740288934
FALCON
1 30776U 07006E   11089.47258695  .00001966  00000-0  14137-3 0 00724
2 30776 035.4323 105.4975 0000359 087.9535 272.1221 15.04278714223182
MAST
1 31126U 07012K   11089.91457985  .00000314  00000-0  80694-4 0 01227
2 31126 097.9030 121.5385 0095451 054.9600 306.0511 14.53698334209717
CAPE1
1 31130U 07012P   11090.44757944  .00000701  00000-0  17094-3 0  1403
2 31130 097.9061 118.9281 0103654 063.4445 297.7351 14.52325481209355
COMPASS
1 32787U 08021E   11089.70679061  .00001136  00000-0  14864-3 0 09484
2 32787 097.8539 154.9663 0016859 073.1640 287.1397 14.82231942157932
AAUSAT2
1 32788U 08021F   11089.74755040  .00001470  00000-0  18973-3 0 09386
2 32788 097.8543 155.2056 0016398 073.6321 286.6718 14.82403215157954
DO-64
1 32789U 08021G   11089.71199605  .00001987  00000-0  25198-3 0 09563
2 32789 097.8640 156.0336 0016424 073.2815 287.0188 14.82748647157954
CO-66
1 32791U 08021J   11090.65304170  .00000843  00000-0  11276-3 0  9399
2 32791 097.8557 155.8588 0017131 068.7849 291.5182 14.81958911158021
RS-30
1 32953U 08025A   11090.39516629  .00000010  00000-0  00000 0 0  5995
2 32953 082.5024 211.0736 0018920 193.0841 166.9749 12.43011288129421
TACSAT-3
1 35001U 09028A   11090.76264302  .00020312  00000-0  40329-3 0  5499
2 35001 040.4483 282.0948 0024719 351.9286 008.1207 15.46129347105088
PHARMSAT
1 35002U 09028B   11090.78326069  .00015846  00000-0  31536-3 0  5105
2 35002 040.4696 279.4622 0025808 356.6703 003.4072 15.46154006105112
HAWKSAT1
1 35003U 09028C   11090.74768261  .00056970  00000-0  79684-3 0  5644
2 35003 040.4562 260.4218 0022288 019.6327 340.5519 15.55613817105327
CP6
1 35004U 09028D   11089.86012998  .00066046  00000-0  82384-3 0  5674
2 35004 040.4584 260.5917 0022137 021.1843 338.9863 15.58618244105238
METEOR-M
1 35865U 09049A   11090.60211308  .00000176  00000-0  10000-3 0  2374
2 35865 098.7141 146.7047 0001607 259.2493 100.8504 14.21835823 79568
RS-38
1 35869U 09049E   11090.61155990  .00000177  00000-0  10000-3 0  2464
2 35869 098.7120 146.7546 0003850 255.1660 104.9067 14.22004209 79573
/EX
